BEIDOU-3S IGSO-1S       
1 40549U 15019A   26183.80025122 -.00000190  00000+0  00000+0 0  9997
2 40549  49.1798 295.2769 0076860 219.1125 144.2493  1.00680073 41232
NAVSTAR 74 (USA 262)    
1 40730U 15033A   26196.14254143 -.00000002  00000+0  00000+0 0  9995
2 40730  53.9612 265.9327 0115357  30.2860 330.4578  2.00554681 80556
BEIDOU-3S M2S           
1 40748U 15037A   26196.24477517 -.00000069  00000+0  00000+0 0  9994
2 40748  54.8444 301.0806 0009424 256.8142 103.1126  1.86231974 74645
BEIDOU-3S M1S           
1 40749U 15037B   26195.91185618 -.00000068  00000+0  00000+0 0  9995
2 40749  54.8409 301.0787 0002768  63.4198 296.6392  1.86254785 74640
GSAT0206 (GALILEO 10)   
1 40890U 15045B   26195.44010403  .00000065  00000+0  00000+0 0  9994
2 40890  54.9389 220.8513 0002159 328.3003  31.7529  1.70473502 67502
BEIDOU-3S IGSO-2S       
1 40938U 15053A   26196.64670753 -.00000094  00000+0  00000+0 0  9992
2 40938  49.1781 258.4418 0066251 193.1557 168.0446  1.00252741 39642
NAVSTAR 75 (USA 265)    
1 41019U 15062A   26194.20306879 -.00000056  00000+0  00000+0 0  9996
2 41019  56.9770  29.8096 0112774 230.8884 128.1532  2.00566897 78358
GSAT-15                 
1 41028U 15065A   26195.36368464  .00000000  00000+0  00000+0 0  9993
2 41028   0.0277  63.4769 0003580  29.8725  63.3157  1.00267881 39074
GSAT0209 (GALILEO 12)   
1 41174U 15079A   26195.02182816 -.00000029  00000+0  00000+0 0  9990
2 41174  55.8424 100.5256 0004793 355.0835   4.9328  1.70473559 65231
GSAT0208 (GALILEO 11)   
1 41175U 15079B   26194.06902902 -.00000030  00000+0  00000+0 0  9992
2 41175  55.8391 100.5488 0004537  14.0255 346.0022  1.70473434 65633
IRNSS-1E                
1 41241U 16003A   26194.04240410 -.00000321  00000+0  00000+0 0  9994
2 41241  33.2887  59.3748 0018977 176.6620 181.8769  1.00278688 38338
NAVSTAR 76 (USA 266)    
1 41328U 16007A   26195.29159725 -.00000027  00000+0  00000+0 0  9993
2 41328  55.5405  88.3847 0096619 247.6140 111.4063  2.00575397 76385
COSMOS 2514 [GLONASS-M] 
1 41330U 16008A   26196.44078681 -.00000061  00000+0  00000+0 0  9994
2 41330  65.0030 312.0370 0012316 201.1829 158.7806  2.13102558 81224
BEIDOU-2 IGSO-6         
1 41434U 16021A   26177.11016981 -.00000145  00000+0  00000+0 0  9995
2 41434  60.2385  37.9495 0057558 231.0163 137.2672  1.00258926 37578
IRNSS-1G                
1 41469U 16027A   26196.55391690 -.00000348  00000+0  00000+0 0  9996
2 41469   5.2636  96.8188 0005951  11.7684 153.9004  1.00270565 37463
GSAT0211 (GALILEO 14)   
1 41549U 16030A   26195.36582065  .00000066  00000+0  00000+0 0  9991
2 41549  55.0898 220.9468 0003383 318.5013  41.5401  1.70473656 63136
GSAT0210 (GALILEO 13)   
1 41550U 16030B   26195.62306106  .00000064  00000+0  00000+0 0  9990
2 41550  55.0888 220.9379 0004719 246.1345 113.8809  1.70473871 63130
BEIDOU-2 G7             
1 41586U 16037A   26196.65026088 -.00000364  00000+0  00000+0 0  9992
2 41586   1.7881  69.4959 0005919 359.7611 208.8766  1.00273186  7179
EUTELSAT 117 WEST B     
1 41589U 16038B   26194.92184275 -.00000017  00000+0  00000+0 0  9992
2 41589   0.0083 162.9812 0000266 316.7358  26.9360  1.00269922 36934
GSAT0207 (GALILEO 15)   
1 41859U 16069A   26192.96868882 -.00000030  00000+0  00000+0 0  9996
2 41859  55.5126 100.4004 0004522 339.9754  20.0172  1.70473524 59824
GSAT0212 (GALILEO 16)   
1 41860U 16069B   26195.75505462 -.00000028  00000+0  00000+0 0  9997
2 41860  55.5126 100.3182 0004383  15.0007 345.0382  1.70473579 60128
GSAT0213 (GALILEO 17)   
1 41861U 16069C   26194.36243565 -.00000031  00000+0  00000+0 0  9991
2 41861  55.5134 100.3648 0004126 318.6741  41.3115  1.70474037 59967
GSAT0214 (GALILEO 18)   
1 41862U 16069D   26195.09530723 -.00000030  00000+0  00000+0 0  9997
2 41862  55.5122 100.3371 0003296 333.1197  26.8847  1.70473685 60108
SES-15                  
1 42709U 17026A   26196.03252360  .00000051  00000+0  00000+0 0  9997
2 42709   0.0255 332.5229 0000275 128.9444  73.9557  1.00268637  7712
QZS-2 (MICHIBIKI-2)     
1 42738U 17028A   26196.44435829 -.00000133  00000+0  00000+0 0  9991
2 42738  39.3862 242.7372 0757500 269.6033  83.3491  1.00276676  7917
QZS-3 (MICHIBIKI-3)     
1 42917U 17048A   26196.55391690 -.00000358  00000+0  00000+0 0  9990
2 42917   0.0649 214.1046 0002539 272.4543 133.2896  1.00271974 32545
COSMOS 2522 [GLONASS-M] 
1 42939U 17055A   26196.27842325  .00000055  00000+0  00000+0 0  9990
2 42939  64.0806 190.9281 0010934 240.7773 119.1159  2.13101758 68571
QZS-4 (MICHIBIKI-4)     
1 42965U 17062A   26195.60848749 -.00000342  00000+0  00000+0 0  9999
2 42965  40.0921 343.1360 0747384 268.5643  38.8857  1.00290232 32071
BEIDOU-3 M1             
1 43001U 17069A   26194.98087194 -.00000038  00000+0  00000+0 0  9999
2 43001  56.7153  62.2025 0009259 328.5361  31.4826  1.86230807 59101
BEIDOU-3 M2             
1 43002U 17069B   26195.99360896 -.00000040  00000+0  00000+0 0  9998
2 43002  56.7151  62.2055 0008280 358.4251   1.6473  1.86230602 59117
GSAT0215 (GALILEO 19)   
1 43055U 17079A   26196.17143387  .00000059  00000+0  00000+0 0  9991
2 43055  55.0676 220.7362 0003831 269.4103  90.6058  1.70474281 53460
